NANOSATC-BR1            
1 40024U 14033Q   26068.98267556  .00020336  00000+0  74295-3 0  9994
2 40024  98.0845  92.7804 0004644 147.6715 212.4808 15.28136801638811
STARLINK-34846          
1 66972U 25288P   26068.91434803  .00037740  00000+0  13732-2 0  9997
2 66972  42.9990  22.0204 0000634 163.4143 196.6729 15.27599691 15325
